{
  "type": "FeatureCollection",
  "features": [
    {
      "type": "Feature",
      "id": "study_boundary",
      "geometry": {
        "type": "Polygon",
        "coordinates": [
          [
            [
              107.15410989761786,
              -6.255313722302005
            ],
            [
              107.15410955488703,
              -6.255392633022697
            ],
            [
              107.15410852401011,
              -6.255471537745629
            ],
            [
              107.15410680506528,
              -6.255550430461897
            ],
            [
              107.15410439818318,
              -6.255629305163508
            ],
            [
              107.15410130354674,
              -6.255708155843837
            ],
            [
              107.15409752139135,
              -6.255786976498091
            ],
            [
              107.15409305200471,
              -6.255865761123756
            ],
            [
              107.15408789572689,
              -6.255944503721062
            ],
            [
              107.15408205295026,
              -6.256023198293432
            ],
            [
              107.15407552411943,
              -6.256101838847952
            ],
            [
              107.15406830973131,
              -6.256180419395813
            ],
            [
              107.154060410335,
              -6.256258933952774
            ],
            [
              107.15405182653178,
              -6.2563373765396175
            ],
            [
              107.15404255897502,
              -6.256415741182601
            ],
            [
              107.15403260837019,
              -6.256494021913925
            ],
            [
              107.15402197547475,
              -6.256572212772164
            ],
            [
              107.15401066109814,
              -6.256650307802746
            ],
            [
              107.15399866610171,
              -6.256728301058385
            ],
            [
              107.15398599139863,
              -6.25680618659955
            ],
            [
              107.15397263795383,
              -6.256883958494909
            ],
            [
              107.15395860678393,
              -6.256961610821778
            ],
            [
              107.15394389895717,
              -6.257039137666576
            ],
            [
              107.15392851559331,
              -6.25711653312528
            ],
            [
              107.1539124578636,
              -6.257193791303872
            ],
            [
              107.15389572699057,
              -6.25727090631878
            ],
            [
              107.15387832424808,
              -6.257347872297331
            ],
            [
              107.15386025096116,
              -6.257424683378207
            ],
            [
              107.15384150850583,
              -6.257501333711875
            ],
            [
              107.15382209830918,
              -6.257577817461049
            ],
            [
              107.15380202184906,
              -6.257654128801121
            ],
            [
              107.15378128065412,
              -6.257730261920613
            ],
            [
              107.15375987630362,
              -6.257806211021619
            ],
            [
              107.1537378104273,
              -6.257881970320235
            ],
            [
              107.15371508470531,
              -6.257957534047021
            ],
            [
              107.15369170086805,
              -6.258032896447421
            ],
            [
              107.15366766069603,
              -6.258108051782212
            ],
            [
              107.15364296601975,
              -6.2581829943279335
            ],
            [
              107.15361761871955,
              -6.258257718377336
            ],
            [
              107.15359162072549,
              -6.258332218239794
            ],
            [
              107.15356497401716,
              -6.258406488241764
            ],
            [
              107.15353768062359,
              -6.258480522727205
            ],
            [
              107.15350974262303,
              -6.258554316057996
            ],
            [
              107.15348116214284,
              -6.258627862614396
            ],
            [
              107.1534519413593,
              -6.258701156795448
            ],
            [
              107.15342208249746,
              -6.258774193019408
            ],
            [
              107.15339158783097,
              -6.25884696572418
            ],
            [
              107.15336045968189,
              -6.258919469367735
            ],
            [
              107.15332870042057,
              -6.258991698428526
            ],
            [
              107.15329631246536,
              -6.259063647405919
            ],
            [
              107.15326329828252,
              -6.259135310820609
            ],
            [
              107.15322966038602,
              -6.259206683215035
            ],
            [
              107.15319540133731,
              -6.259277759153791
            ],
            [
              107.15316052374517,
              -6.259348533224055
            ],
            [
              107.15312503026547,
              -6.259419000035987
            ],
            [
              107.15308892360099,
              -6.259489154223142
            ],
            [
              107.1530522065012,
              -6.2595589904428826
            ],
            [
              107.15301488176208,
              -6.2596285033767884
            ],
            [
              107.1529769522259,
              -6.259697687731054
            ],
            [
              107.15293842078096,
              -6.259766538236889
            ],
            [
              107.1528992903614,
              -6.259835049650939
            ],
            [
              107.15285956394702,
              -6.259903216755661
            ],
            [
              107.15281924456298,
              -6.259971034359732
            ],
            [
              107.15277833527962,
              -6.260038497298448
            ],
            [
              107.15273683921217,
              -6.260105600434109
            ],
            [
              107.15269475952059,
              -6.260172338656415
            ],
            [
              107.1526520994093,
              -6.2602387068828556
            ],
            [
              107.15260886212687,
              -6.260304700059097
            ],
            [
              107.15256505096589,
              -6.260370313159361
            ],
            [
              107.15252066926261,
              -6.260435541186818
            ],
            [
              107.15247572039677,
              -6.2605003791739575
            ],
            [
              107.15243020779128,
              -6.2605648221829755
            ],
            [
              107.152384134912,
              -6.260628865306144
            ],
            [
              107.15233750526747,
              -6.260692503666189
            ],
            [
              107.15229032240862,
              -6.260755732416654
            ],
            [
              107.1522425899285,
              -6.260818546742283
            ],
            [
              107.15219431146207,
              -6.260880941859373
            ],
            [
              107.15214549068583,
              -6.260942913016147
            ],
            [
              107.15209613131759,
              -6.261004455493116
            ],
            [
              107.15204623711621,
              -6.2610655646034346
            ],
            [
              107.15199581188124,
              -6.261126235693255
            ],
            [
              107.15194485945271,
              -6.2611864641420905
            ],
            [
              107.15189338371081,
              -6.261246245363167
            ],
            [
              107.15184138857556,
              -6.261305574803754
            ],
            [
              107.15178887800654,
              -6.2613644479455415
            ],
            [
              107.1517358560026,
              -6.261422860304957
            ],
            [
              107.15168232660156,
              -6.261480807433521
            ],
            [
              107.15162829387985,
              -6.261538284918188
            ],
            [
              107.15157376195225,
              -6.261595288381672
            ],
            [
              107.15151873497159,
              -6.261651813482786
            ],
            [
              107.15146321712832,
              -6.261707855916771
            ],
            [
              107.1514072126504,
              -6.2617634114156315
            ],
            [
              107.15135072580277,
              -6.261818475748444
            ],
            [
              107.15129376088711,
              -6.2618730447217
            ],
            [
              107.15123632224156,
              -6.261927114179606
            ],
            [
              107.15117841424028,
              -6.26198068000441
            ],
            [
              107.15112004129324,
              -6.2620337381167195
            ],
            [
              107.15106120784579,
              -6.262086284475798
            ],
            [
              107.15100191837836,
              -6.262138315079891
            ],
            [
              107.15094217740611,
              -6.262189825966511
            ],
            [
              107.1508819894786,
              -6.2622408132127605
            ],
            [
              107.1508213591794,
              -6.262291272935608
            ],
            [
              107.15076029112583,
              -6.262341201292202
            ],
            [
              107.1506987899685,
              -6.262390594480154
            ],
            [
              107.15063686039105,
              -6.262439448737841
            ],
            [
              107.1505745071097,
              -6.262487760344666
            ],
            [
              107.15051173487298,
              -6.262535525621371
            ],
            [
              107.15044854846133,
              -6.262582740930297
            ],
            [
              107.15038495268672,
              -6.262629402675664
            ],
            [
              107.1503209523923,
              -6.2626755073038645
            ],
            [
              107.15025655245208,
              -6.262721051303705
            ],
            [
              107.15019175777041,
              -6.262766031206689
            ],
            [
              107.15012657328182,
              -6.26281044358728
            ],
            [
              107.15006100395043,
              -6.262854285063161
            ],
            [
              107.14999505476973,
              -6.262897552295495
            ],
            [
              107.14992873076214,
              -6.262940241989176
            ],
            [
              107.14986203697859,
              -6.2629823508930835
            ],
            [
              107.14979497849825,
              -6.26302387580032
            ],
            [
              107.14972756042799,
              -6.263064813548463
            ],
            [
              107.1496597879021,
              -6.263105161019817
            ],
            [
              107.14959166608186,
              -6.263144915141628
            ],
            [
              107.14952320015519,
              -6.263184072886338
            ],
            [
              107.14945439533618,
              -6.263222631271798
            ],
            [
              107.14938525686472,
              -6.263260587361509
            ],
            [
              107.14931579000618,
              -6.263297938264839
            ],
            [
              107.14924600005088,
              -6.2633346811372475
            ],
            [
              107.14917589231378,
              -6.263370813180494
            ],
            [
              107.14910547213402,
              -6.263406331642863
            ],
            [
              107.14903474487457,
              -6.263441233819364
            ],
            [
              107.14896371592177,
              -6.263475517051936
            ],
            [
              107.14889239068492,
              -6.263509178729667
            ],
            [
              107.14882077459593,
              -6.263542216288965
            ],
            [
              107.14874887310884,
              -6.263574627213779
            ],
            [
              107.14867669169946,
              -6.26360640903578
            ],
            [
              107.14860423586485,
              -6.263637559334542
            ],
            [
              107.14853151112302,
              -6.263668075737746
            ],
            [
              107.14845852301248,
              -6.263697955921335
            ],
            [
              107.14838527709178,
              -6.263727197609713
            ],
            [
              107.14831177893907,
              -6.26375579857591
            ],
            [
              107.14823803415179,
              -6.263783756641747
            ],
            [
              107.14816404834609,
              -6.263811069678003
            ],
            [
              107.14808982715653,
              -6.263837735604597
            ],
            [
              107.14801537623558,
              -6.2638637523907095
            ],
            [
              107.14794070125319,
              -6.263889118054971
            ],
            [
              107.14786580789642,
              -6.2639138306655955
            ],
            [
              107.14779070186891,
              -6.2639378883405294
            ],
            [
              107.14771538889056,
              -6.263961289247602
            ],
            [
              107.14763987469696,
              -6.263984031604654
            ],
            [
              107.14756416503913,
              -6.264006113679687
            ],
            [
              107.14748826568284,
              -6.264027533790981
            ],
            [
              107.14741218240843,
              -6.264048290307233
            ],
            [
              107.14733592101018,
              -6.264068381647679
            ],
            [
              107.147259487296,
              -6.264087806282204
            ],
            [
              107.14718288708683,
              -6.264106562731483
            ],
            [
              107.14710612621639,
              -6.264124649567062
            ],
            [
              107.14702921053056,
              -6.264142065411496
            ],
            [
              107.1469521458871,
              -6.264158808938435
            ],
            [
              107.14687493815501,
              -6.26417487887273
            ],
            [
              107.14679759321426,
              -6.264190273990529
            ],
            [
              107.14672011695525,
              -6.2642049931193835
            ],
            [
              107.1466425152784,
              -6.264219035138315
            ],
            [
              107.14656479409365,
              -6.264232398977918
            ],
            [
              107.14648695932007,
              -6.264245083620429
            ],
            [
              107.14640901688537,
              -6.26425708809982
            ],
            [
              107.14633097272548,
              -6.264268411501856
            ],
            [
              107.14625283278404,
              -6.264279052964174
            ],
            [
              107.14617460301203,
              -6.264289011676343
            ],
            [
              107.14609628936721,
              -6.264298286879932
            ],
            [
              107.1460178978138,
              -6.26430687786856
            ],
            [
              107.14593943432193,
              -6.264314783987961
            ],
            [
              107.14586090486719,
              -6.264322004636023
            ],
            [
              107.1457823154302,
              -6.264328539262834
            ],
            [
              107.14570367199616,
              -6.264334387370734
            ],
            [
              107.14562498055439,
              -6.2643395485143465
            ],
            [
              107.14554624709784,
              -6.264344022300606
            ],
            [
              107.14546747762267,
              -6.2643478083888
            ],
            [
              107.14538867812783,
              -6.264350906490598
            ],
            [
              107.14530985461445,
              -6.264353316370044
            ],
            [
              107.14523101308562,
              -6.264355037843608
            ],
            [
              107.1451521595457,
              -6.264356070780192
            ],
            [
              107.1450733,
              -6.264356415101128
            ],
            [
              107.14499444045431,
              -6.264356070780192
            ],
            [
              107.1449155869144,
              -6.264355037843608
            ],
            [
              107.14483674538555,
              -6.264353316370044
            ],
            [
              107.14475792187218,
              -6.264350906490598
            ],
            [
              107.14467912237733,
              -6.2643478083888
            ],
            [
              107.14460035290217,
              -6.264344022300606
            ],
            [
              107.14452161944563,
              -6.2643395485143465
            ],
            [
              107.14444292800384,
              -6.264334387370734
            ],
            [
              107.1443642845698,
              -6.264328539262834
            ],
            [
              107.14428569513282,
              -6.264322004636023
            ],
            [
              107.14420716567808,
              -6.264314783987961
            ],
            [
              107.1441287021862,
              -6.26430687786856
            ],
            [
              107.1440503106328,
              -6.264298286879932
            ],
            [
              107.14397199698799,
              -6.264289011676343
            ],
            [
              107.14389376721597,
              -6.264279052964174
            ],
            [
              107.14381562727452,
              -6.264268411501856
            ],
            [
              107.14373758311463,
              -6.26425708809982
            ],
            [
              107.14365964067993,
              -6.264245083620429
            ],
            [
              107.14358180590636,
              -6.264232398977918
            ],
            [
              107.14350408472161,
              -6.264219035138315
            ],
            [
              107.14342648304476,
              -6.2642049931193835
            ],
            [
              107.14334900678575,
              -6.264190273990529
            ],
            [
              107.143271661845,
              -6.26417487887273
            ],
            [
              107.14319445411292,
              -6.264158808938435
            ],
            [
              107.14311738946944,
              -6.264142065411496
            ],
            [
              107.14304047378361,
              -6.264124649567062
            ],
            [
              107.14296371291317,
              -6.264106562731483
            ],
            [
              107.14288711270402,
              -6.264087806282204
            ],
            [
              107.14281067898982,
              -6.264068381647679
            ],
            [
              107.14273441759157,
              -6.264048290307233
            ],
            [
              107.14265833431716,
              -6.264027533790981
            ],
            [
              107.14258243496089,
              -6.264006113679687
            ],
            [
              107.14250672530304,
              -6.263984031604654
            ],
            [
              107.14243121110945,
              -6.263961289247602
            ],
            [
              107.1423558981311,
              -6.2639378883405294
            ],
            [
              107.14228079210359,
              -6.2639138306655955
            ],
            [
              107.14220589874682,
              -6.263889118054971
            ],
            [
              107.14213122376444,
              -6.2638637523907095
            ],
            [
              107.14205677284347,
              -6.263837735604597
            ],
            [
              107.14198255165391,
              -6.263811069678003
            ],
            [
              107.14190856584823,
              -6.263783756641747
            ],
            [
              107.14183482106093,
              -6.26375579857591
            ],
            [
              107.14176132290824,
              -6.263727197609713
            ],
            [
              107.14168807698752,
              -6.2636979559213355
            ],
            [
              107.14161508887699,
              -6.263668075737746
            ],
            [
              107.14154236413516,
              -6.263637559334542
            ],
            [
              107.14146990830055,
              -6.26360640903578
            ],
            [
              107.14139772689116,
              -6.263574627213779
            ],
            [
              107.14132582540408,
              -6.263542216288965
            ],
            [
              107.1412542093151,
              -6.263509178729667
            ],
            [
              107.14118288407825,
              -6.263475517051937
            ],
            [
              107.14111185512544,
              -6.263441233819364
            ],
            [
              107.14104112786598,
              -6.263406331642863
            ],
            [
              107.14097070768622,
              -6.263370813180494
            ],
            [
              107.14090059994912,
              -6.2633346811372475
            ],
            [
              107.14083080999382,
              -6.263297938264839
            ],
            [
              107.14076134313528,
              -6.263260587361509
            ],
            [
              107.14069220466384,
              -6.263222631271798
            ],
            [
              107.14062339984481,
              -6.263184072886338
            ],
            [
              107.14055493391814,
              -6.263144915141628
            ],
            [
              107.14048681209792,
              -6.2631051610198165
            ],
            [
              107.14041903957202,
              -6.263064813548463
            ],
            [
              107.14035162150176,
              -6.26302387580032
            ],
            [
              107.14028456302141,
              -6.2629823508930835
            ],
            [
              107.14021786923787,
              -6.2629402419891775
            ],
            [
              107.14015154523028,
              -6.262897552295495
            ],
            [
              107.14008559604957,
              -6.262854285063161
            ],
            [
              107.14002002671819,
              -6.26281044358728
            ],
            [
              107.1399548422296,
              -6.262766031206689
            ],
            [
              107.13989004754794,
              -6.262721051303705
            ],
            [
              107.1398256476077,
              -6.2626755073038645
            ],
            [
              107.13976164731329,
              -6.262629402675664
            ],
            [
              107.13969805153867,
              -6.262582740930296
            ],
            [
              107.13963486512704,
              -6.262535525621371
            ],
            [
              107.13957209289032,
              -6.262487760344666
            ],
            [
              107.13950973960897,
              -6.262439448737841
            ],
            [
              107.13944781003151,
              -6.262390594480155
            ],
            [
              107.13938630887418,
              -6.262341201292202
            ],
            [
              107.1393252408206,
              -6.262291272935608
            ],
            [
              107.13926461052141,
              -6.2622408132127605
            ],
            [
              107.13920442259389,
              -6.262189825966511
            ],
            [
              107.13914468162164,
              -6.262138315079891
            ],
            [
              107.13908539215423,
              -6.262086284475798
            ],
            [
              107.13902655870677,
              -6.2620337381167195
            ],
            [
              107.13896818575972,
              -6.26198068000441
            ],
            [
              107.13891027775846,
              -6.261927114179606
            ],
            [
              107.1388528391129,
              -6.2618730447217
            ],
            [
              107.13879587419724,
              -6.261818475748444
            ],
            [
              107.1387393873496,
              -6.2617634114156315
            ],
            [
              107.13868338287169,
              -6.261707855916771
            ],
            [
              107.13862786502843,
              -6.261651813482786
            ],
            [
              107.13857283804775,
              -6.261595288381673
            ],
            [
              107.13851830612015,
              -6.261538284918188
            ],
            [
              107.13846427339844,
              -6.2614808074335215
            ],
            [
              107.1384107439974,
              -6.261422860304957
            ],
            [
              107.13835772199346,
              -6.2613644479455415
            ],
            [
              107.13830521142445,
              -6.261305574803754
            ],
            [
              107.1382532162892,
              -6.261246245363167
            ],
            [
              107.1382017405473,
              -6.2611864641420905
            ],
            [
              107.13815078811876,
              -6.261126235693255
            ],
            [
              107.1381003628838,
              -6.2610655646034346
            ],
            [
              107.13805046868242,
              -6.261004455493116
            ],
            [
              107.13800110931419,
              -6.260942913016147
            ],
            [
              107.13795228853795,
              -6.260880941859373
            ],
            [
              107.13790401007151,
              -6.260818546742283
            ],
            [
              107.1378562775914,
              -6.260755732416654
            ],
            [
              107.13780909473255,
              -6.260692503666189
            ],
            [
              107.13776246508802,
              -6.260628865306144
            ],
            [
              107.13771639220873,
              -6.2605648221829755
            ],
            [
              107.13767087960325,
              -6.260500379173958
            ],
            [
              107.1376259307374,
              -6.260435541186818
            ],
            [
              107.13758154903412,
              -6.260370313159361
            ],
            [
              107.13753773787313,
              -6.260304700059097
            ],
            [
              107.1374945005907,
              -6.2602387068828556
            ],
            [
              107.13745184047943,
              -6.260172338656415
            ],
            [
              107.13740976078783,
              -6.260105600434109
            ],
            [
              107.1373682647204,
              -6.260038497298448
            ],
            [
              107.13732735543702,
              -6.259971034359732
            ],
            [
              107.13728703605298,
              -6.259903216755661
            ],
            [
              107.13724730963861,
              -6.259835049650939
            ],
            [
              107.13720817921906,
              -6.259766538236889
            ],
            [
              107.13716964777412,
              -6.259697687731054
            ],
            [
              107.13713171823792,
              -6.2596285033767884
            ],
            [
              107.13709439349881,
              -6.2595589904428826
            ],
            [
              107.13705767639901,
              -6.259489154223142
            ],
            [
              107.13702156973453,
              -6.259419000035987
            ],
            [
              107.13698607625483,
              -6.259348533224055
            ],
            [
              107.13695119866269,
              -6.259277759153792
            ],
            [
              107.13691693961398,
              -6.259206683215035
            ],
            [
              107.13688330171749,
              -6.259135310820609
            ],
            [
              107.13685028753466,
              -6.259063647405919
            ],
            [
              107.13681789957944,
              -6.258991698428526
            ],
            [
              107.13678614031811,
              -6.258919469367735
            ],
            [
              107.13675501216903,
              -6.25884696572418
            ],
            [
              107.13672451750256,
              -6.258774193019408
            ],
            [
              107.13669465864072,
              -6.258701156795446
            ],
            [
              107.13666543785718,
              -6.258627862614396
            ],
            [
              107.13663685737698,
              -6.258554316057996
            ],
            [
              107.13660891937641,
              -6.258480522727203
            ],
            [
              107.13658162598284,
              -6.258406488241764
            ],
            [
              107.13655497927452,
              -6.258332218239795
            ],
            [
              107.13652898128045,
              -6.258257718377336
            ],
            [
              107.13650363398025,
              -6.2581829943279335
            ],
            [
              107.13647893930398,
              -6.258108051782213
            ],
            [
              107.13645489913196,
              -6.258032896447421
            ],
            [
              107.1364315152947,
              -6.257957534047021
            ],
            [
              107.13640878957271,
              -6.257881970320235
            ],
            [
              107.13638672369639,
              -6.2578062110216175
            ],
            [
              107.13636531934588,
              -6.257730261920613
            ],
            [
              107.13634457815095,
              -6.257654128801121
            ],
            [
              107.13632450169084,
              -6.257577817461049
            ],
            [
              107.13630509149418,
              -6.257501333711875
            ],
            [
              107.13628634903885,
              -6.257424683378206
            ],
            [
              107.13626827575192,
              -6.257347872297331
            ],
            [
              107.13625087300943,
              -6.25727090631878
            ],
            [
              107.13623414213642,
              -6.257193791303872
            ],
            [
              107.1362180844067,
              -6.257116533125281
            ],
            [
              107.13620270104285,
              -6.257039137666576
            ],
            [
              107.13618799321607,
              -6.256961610821777
            ],
            [
              107.13617396204619,
              -6.256883958494909
            ],
            [
              107.13616060860137,
              -6.25680618659955
            ],
            [
              107.13614793389829,
              -6.256728301058385
            ],
            [
              107.13613593890186,
              -6.256650307802745
            ],
            [
              107.13612462452527,
              -6.256572212772164
            ],
            [
              107.13611399162981,
              -6.256494021913925
            ],
            [
              107.13610404102499,
              -6.256415741182601
            ],
            [
              107.13609477346822,
              -6.256337376539617
            ],
            [
              107.136086189665,
              -6.256258933952774
            ],
            [
              107.1360782902687,
              -6.256180419395813
            ],
            [
              107.13607107588058,
              -6.256101838847952
            ],
            [
              107.13606454704976,
              -6.256023198293432
            ],
            [
              107.13605870427313,
              -6.255944503721063
            ],
            [
              107.13605354799529,
              -6.255865761123756
            ],
            [
              107.13604907860866,
              -6.255786976498091
            ],
            [
              107.13604529645326,
              -6.255708155843837
            ],
            [
              107.13604220181684,
              -6.255629305163508
            ],
            [
              107.13603979493472,
              -6.255550430461898
            ],
            [
              107.1360380759899,
              -6.255471537745629
            ],
            [
              107.13603704511299,
              -6.255392633022697
            ],
            [
              107.13603670238214,
              -6.255313722302005
            ],
            [
              107.13603704782321,
              -6.25523481159291
            ],
            [
              107.13603808140952,
              -6.2551559069047675
            ],
            [
              107.13603980306209,
              -6.255077014246469
            ],
            [
              107.1360422126495,
              -6.25499813962599
            ],
            [
              107.1360453099879,
              -6.254919289049931
            ],
            [
              107.13604909484117,
              -6.254840468523054
            ],
            [
              107.1360535669207,
              -6.254761684047833
            ],
            [
              107.13605872588566,
              -6.254682941623995
            ],
            [
              107.13606457134287,
              -6.2546042472480545
            ],
            [
              107.13607110284686,
              -6.254525606912882
            ],
            [
              107.13607831989991,
              -6.254447026607207
            ],
            [
              107.13608622195213,
              -6.254368512315204
            ],
            [
              107.13609480840145,
              -6.254290070016004
            ],
            [
              107.13610407859365,
              -6.254211705683261
            ],
            [
              107.13611403182249,
              -6.254133425284687
            ],
            [
              107.1361246673297,
              -6.254055234781599
            ],
            [
              107.13613598430503,
              -6.25397714012847
            ],
            [
              107.13614798188635,
              -6.253899147272461
            ],
            [
              107.13616065915969,
              -6.253821262152985
            ],
            [
              107.13617401515937,
              -6.25374349070125
            ],
            [
              107.13618804886795,
              -6.2536658388398
            ],
            [
              107.13620275921646,
              -6.253588312482072
            ],
            [
              107.13621814508433,
              -6.253510917531943
            ],
            [
              107.13623420529959,
              -6.25343365988328
            ],
            [
              107.13625093863891,
              -6.25335654541949
            ],
            [
              107.1362683438277,
              -6.2532795800130785
            ],
            [
              107.13628641954021,
              -6.25320276952519
            ],
            [
              107.13630516439962,
              -6.253126119805172
            ],
            [
              107.13632457697817,
              -6.253049636690132
            ],
            [
              107.13634465579722,
              -6.2529733260044775
            ],
            [
              107.13636539932746,
              -6.252897193559493
            ],
            [
              107.13638680598892,
              -6.2528212451528775
            ],
            [
              107.1364088741511,
              -6.252745486568319
            ],
            [
              107.13643160213319,
              -6.252669923575043
            ],
            [
              107.13645498820411,
              -6.252594561927383
            ],
            [
              107.13647903058266,
              -6.252519407364333
            ],
            [
              107.13650372743766,
              -6.252444465609116
            ],
            [
              107.1365290768881,
              -6.252369742368745
            ],
            [
              107.1365550770033,
              -6.2522952433335925
            ],
            [
              107.13658172580298,
              -6.252220974176955
            ],
            [
              107.13660902125751,
              -6.252146940554619
            ],
            [
              107.13663696128798,
              -6.252073148104435
            ],
            [
              107.13666554376644,
              -6.251999602445875
            ],
            [
              107.13669476651599,
              -6.251926309179632
            ],
            [
              107.13672462731098,
              -6.251853273887164
            ],
            [
              107.13675512387715,
              -6.251780502130282
            ],
            [
              107.13678625389188,
              -6.251707999450734
            ],
            [
              107.1368180149843,
              -6.251635771369768
            ],
            [
              107.13685040473543,
              -6.25156382338772
            ],
            [
              107.13688342067849,
              -6.251492160983592
            ],
            [
              107.13691706029897,
              -6.251420789614636
            ],
            [
              107.13695132103489,
              -6.251349714715945
            ],
            [
              107.13698620027698,
              -6.25127894170003
            ],
            [
              107.13702169536884,
              -6.251208475956408
            ],
            [
              107.13705780360723,
              -6.251138322851192
            ],
            [
              107.13709452224217,
              -6.251068487726695
            ],
            [
              107.13713184847721,
              -6.250998975901004
            ],
            [
              107.13716977946967,
              -6.250929792667588
            ],
            [
              107.13720831233076,
              -6.250860943294887
            ],
            [
              107.1372474441259,
              -6.250792433025922
            ],
            [
              107.13728717187492,
              -6.250724267077885
            ],
            [
              107.13732749255222,
              -6.250656450641741
            ],
            [
              107.13736840308708,
              -6.250588988881842
            ],
            [
              107.13740990036388,
              -6.250521886935528
            ],
            [
              107.13745198122226,
              -6.250455149912736
            ],
            [
              107.13749464245753,
              -6.250388782895612
            ],
            [
              107.13753788082069,
              -6.250322790938124
            ],
            [
              107.13758169301887,
              -6.250257179065673
            ],
            [
              107.13762607571549,
              -6.250191952274721
            ],
            [
              107.13767102553051,
              -6.250127115532393
            ],
            [
              107.13771653904072,
              -6.2500626737761245
            ],
            [
              107.13776261278,
              -6.249998631913254
            ],
            [
              107.13780924323954,
              -6.24993499482068
            ],
            [
              107.13785642686818,
              -6.2498717673444615
            ],
            [
              107.1379041600726,
              -6.249808954299477
            ],
            [
              107.13795243921766,
              -6.249746560469032
            ],
            [
              107.13800126062661,
              -6.249684590604513
            ],
            [
              107.13805062058145,
              -6.2496230494250185
            ],
            [
              107.1381005153232,
              -6.249561941616998
            ],
            [
              107.13815094105209,
              -6.249501271833898
            ],
            [
              107.13820189392793,
              -6.249441044695812
            ],
            [
              107.13825337007046,
              -6.24938126478912
            ],
            [
              107.13830536555948,
              -6.249321936666135
            ],
            [
              107.13835787643531,
              -6.249263064844785
            ],
            [
              107.13841089869902,
              -6.249204653808226
            ],
            [
              107.13846442831272,
              -6.24914670800454
            ],
            [
              107.1385184611999,
              -6.249089231846371
            ],
            [
              107.1385729932457,
              -6.249032229710599
            ],
            [
              107.13862802029733,
              -6.248975705938007
            ],
            [
              107.13868353816423,
              -6.248919664832945
            ],
            [
              107.13873954261851,
              -6.248864110663012
            ],
            [
              107.1387960293952,
              -6.24880904765872
            ],
            [
              107.13885299419263,
              -6.248754480013177
            ],
            [
              107.13891043267273,
              -6.248700411881771
            ],
            [
              107.13896834046135,
              -6.248646847381842
            ],
            [
              107.13902671314862,
              -6.248593790592394
            ],
            [
              107.13908554628925,
              -6.248541245553747
            ],
            [
              107.1391448354029,
              -6.248489216267261
            ],
            [
              107.13920457597455,
              -6.248437706695018
            ],
            [
              107.13926476345473,
              -6.24838672075952
            ],
            [
              107.13932539326,
              -6.248336262343398
            ],
            [
              107.13938646077322,
              -6.2482863352891
            ],
            [
              107.13944796134392,
              -6.248236943398619
            ],
            [
              107.13950989028868,
              -6.248188090433192
            ],
            [
              107.1395722428914,
              -6.248139780113011
            ],
            [
              107.13963501440381,
              -6.248092016116952
            ],
            [
              107.13969820004569,
              -6.248044802082275
            ],
            [
              107.13976179500528,
              -6.247998141604373
            ],
            [
              107.13982579443969,
              -6.24795203823647
            ],
            [
              107.1398901934752,
              -6.24790649548938
            ],
            [
              107.13995498720767,
              -6.247861516831211
            ],
            [
              107.14002017070294,
              -6.247817105687126
            ],
            [
              107.14008573899713,
              -6.247773265439057
            ],
            [
              107.14015168709709,
              -6.247729999425472
            ],
            [
              107.14021800998071,
              -6.247687310941108
            ],
            [
              107.14028470259744,
              -6.247645203236715
            ],
            [
              107.14035175986844,
              -6.247603679518829
            ],
            [
              107.1404191766872,
              -6.2475627429494995
            ],
            [
              107.14048694791985,
              -6.247522396646074
            ],
            [
              107.14055506840545,
              -6.247482643680942
            ],
            [
              107.14062353295652,
              -6.247443487081319
            ],
            [
              107.14069233635938,
              -6.247404929828998
            ],
            [
              107.14076147337457,
              -6.247366974860135
            ],
            [
              107.14083093873718,
              -6.247329625065019
            ],
            [
              107.14090072715734,
              -6.247292883287856
            ],
            [
              107.14097083332054,
              -6.247256752326548
            ],
            [
              107.14104125188814,
              -6.2472212349324865
            ],
            [
              107.14111197749763,
              -6.247186333810333
            ],
            [
              107.14118300476323,
              -6.247152051617828
            ],
            [
              107.14125432827609,
              -6.247118390965571
            ],
            [
              107.14132594260485,
              -6.247085354416834
            ],
            [
              107.141397842296,
              -6.247052944487362
            ],
            [
              107.14147002187434,
              -6.247021163645189
            ],
            [
              107.14154247584328,
              -6.2469900143104296
            ],
            [
              107.14161519868541,
              -6.24695949885512
            ],
            [
              107.1416881848628,
              -6.246929619603024
            ],
            [
              107.1417614288175,
              -6.24690037882945
            ],
            [
              107.14183492497195,
              -6.246871778761098
            ],
            [
              107.1419086677293,
              -6.246843821575871
            ],
            [
              107.14198265147405,
              -6.246816509402709
            ],
            [
              107.14205687057226,
              -6.246789844321452
            ],
            [
              107.14213131937208,
              -6.246763828362646
            ],
            [
              107.14220599220421,
              -6.246738463507412
            ],
            [
              107.14228088338227,
              -6.246713751687296
            ],
            [
              107.14235598720325,
              -6.246689694784102
            ],
            [
              107.14243129794795,
              -6.246666294629771
            ],
            [
              107.14250680988143,
              -6.246643553006226
            ],
            [
              107.1425825172534,
              -6.2466214716452555
            ],
            [
              107.14265841429875,
              -6.246600052228349
            ],
            [
              107.14273449523786,
              -6.246579296386603
            ],
            [
              107.14281075427715,
              -6.2465592057005805
            ],
            [
              107.14288718560945,
              -6.246539781700184
            ],
            [
              107.14296378341453,
              -6.246521025864559
            ],
            [
              107.14304054185939,
              -6.246502939621965
            ],
            [
              107.1431174550989,
              -6.24648552434967
            ],
            [
              107.14319451727609,
              -6.246468781373851
            ],
            [
              107.14327172252264,
              -6.246452711969486
            ],
            [
              107.14334906495937,
              -6.246437317360259
            ],
            [
              107.14342653869663,
              -6.246422598718477
            ],
            [
              107.1435041378348,
              -6.246408557164965
            ],
            [
              107.14358185646466,
              -6.246395193768984
            ],
            [
              107.14365968866798,
              -6.2463825095481615
            ],
            [
              107.14373762851778,
              -6.2463705054684
            ],
            [
              107.14381567007895,
              -6.246359182443815
            ],
            [
              107.14389380740865,
              -6.24634854133665
            ],
            [
              107.14397203455665,
              -6.246338582957231
            ],
            [
              107.14405034556601,
              -6.246329308063886
            ],
            [
              107.14412873447333,
              -6.246320717362898
            ],
            [
              107.14420719530929,
              -6.246312811508454
            ],
            [
              107.14428572209908,
              -6.24630559110258
            ],
            [
              107.14436430886292,
              -6.246299056695113
            ],
            [
              107.14444294961639,
              -6.246293208783649
            ],
            [
              107.14452163837102,
              -6.246288047813501
            ],
            [
              107.14460036913466,
              -6.246283574177688
            ],
            [
              107.14467913591196,
              -6.246279788216866
            ],
            [
              107.14475793270485,
              -6.246276690219344
            ],
            [
              107.14483675351293,
              -6.246274280421032
            ],
            [
              107.14491559233402,
              -6.246272559005432
            ],
            [
              107.14499444316453,
              -6.246271526103637
            ],
            [
              107.1450733,
              -6.246271181794299
            ],
            [
              107.14515215683547,
              -6.246271526103637
            ],
            [
              107.14523100766598,
              -6.246272559005432
            ],
            [
              107.14530984648708,
              -6.246274280421032
            ],
            [
              107.14538866729517,
              -6.246276690219344
            ],
            [
              107.14546746408804,
              -6.246279788216866
            ],
            [
              107.14554623086535,
              -6.246283574177688
            ],
            [
              107.145624961629,
              -6.246288047813501
            ],
            [
              107.14570365038362,
              -6.246293208783649
            ],
            [
              107.14578229113708,
              -6.246299056695113
            ],
            [
              107.14586087790092,
              -6.24630559110258
            ],
            [
              107.14593940469071,
              -6.246312811508454
            ],
            [
              107.14601786552667,
              -6.246320717362898
            ],
            [
              107.14609625443398,
              -6.246329308063886
            ],
            [
              107.14617456544335,
              -6.2463385829572315
            ],
            [
              107.14625279259137,
              -6.24634854133665
            ],
            [
              107.14633092992105,
              -6.246359182443815
            ],
            [
              107.14640897148223,
              -6.2463705054684
            ],
            [
              107.14648691133203,
              -6.246382509548163
            ],
            [
              107.14656474353535,
              -6.246395193768984
            ],
            [
              107.1466424621652,
              -6.246408557164964
            ],
            [
              107.14672006130338,
              -6.246422598718477
            ],
            [
              107.14679753504063,
              -6.246437317360259
            ],
            [
              107.14687487747737,
              -6.246452711969486
            ],
            [
              107.14695208272393,
              -6.246468781373852
            ],
            [
              107.14702914490111,
              -6.24648552434967
            ],
            [
              107.14710605814061,
              -6.246502939621965
            ],
            [
              107.14718281658548,
              -6.246521025864559
            ],
            [
              107.14725941439056,
              -6.246539781700184
            ],
            [
              107.14733584572286,
              -6.2465592057005805
            ],
            [
              107.14741210476215,
              -6.246579296386603
            ],
            [
              107.14748818570126,
              -6.246600052228349
            ],
            [
              107.14756408274661,
              -6.2466214716452555
            ],
            [
              107.14763979011859,
              -6.246643553006226
            ],
            [
              107.14771530205206,
              -6.24666629462977
            ],
            [
              107.14779061279675,
              -6.246689694784102
            ],
            [
              107.14786571661774,
              -6.246713751687296
            ],
            [
              107.14794060779579,
              -6.246738463507412
            ],
            [
              107.14801528062793,
              -6.246763828362646
            ],
            [
              107.14808972942775,
              -6.246789844321452
            ],
            [
              107.14816394852596,
              -6.246816509402709
            ],
            [
              107.1482379322707,
              -6.246843821575871
            ],
            [
              107.14831167502807,
              -6.246871778761098
            ],
            [
              107.14838517118251,
              -6.24690037882945
            ],
            [
              107.1484584151372,
              -6.246929619603024
            ],
            [
              107.1485314013146,
              -6.24695949885512
            ],
            [
              107.14860412415673,
              -6.246990014310429
            ],
            [
              107.14867657812567,
              -6.247021163645189
            ],
            [
              107.148748757704,
              -6.247052944487363
            ],
            [
              107.14882065739516,
              -6.247085354416833
            ],
            [
              107.14889227172392,
              -6.247118390965571
            ],
            [
              107.14896359523678,
              -6.247152051617828
            ],
            [
              107.14903462250237,
              -6.247186333810334
            ],
            [
              107.14910534811187,
              -6.2472212349324865
            ],
            [
              107.14917576667948,
              -6.24725675232655
            ],
            [
              107.14924587284267,
              -6.247292883287856
            ],
            [
              107.14931566126283,
              -6.24732962506502
            ],
            [
              107.14938512662543,
              -6.247366974860136
            ],
            [
              107.14945426364062,
              -6.247404929828997
            ],
            [
              107.14952306704349,
              -6.247443487081319
            ],
            [
              107.14959153159457,
              -6.247482643680943
            ],
            [
              107.14965965208016,
              -6.247522396646074
            ],
            [
              107.1497274233128,
              -6.2475627429494995
            ],
            [
              107.14979484013158,
              -6.2476036795188294
            ],
            [
              107.14986189740257,
              -6.247645203236715
            ],
            [
              107.14992859001929,
              -6.247687310941107
            ],
            [
              107.14999491290293,
              -6.247729999425474
            ],
            [
              107.15006086100288,
              -6.247773265439057
            ],
            [
              107.15012642929706,
              -6.247817105687128
            ],
            [
              107.15019161279234,
              -6.247861516831212
            ],
            [
              107.1502564065248,
              -6.247906495489381
            ],
            [
              107.15032080556033,
              -6.24795203823647
            ],
            [
              107.15038480499472,
              -6.24799814160437
            ],
            [
              107.15044839995431,
              -6.2480448020822745
            ],
            [
              107.15051158559619,
              -6.24809201611695
            ],
            [
              107.1505743571086,
              -6.248139780113011
            ],
            [
              107.15063670971134,
              -6.248188090433192
            ],
            [
              107.1506986386561,
              -6.248236943398618
            ],
            [
              107.15076013922679,
              -6.248286335289099
            ],
            [
              107.15082120674002,
              -6.248336262343399
            ],
            [
              107.15088183654528,
              -6.248386720759519
            ],
            [
              107.15094202402547,
              -6.248437706695019
            ],
            [
              107.1510017645971,
              -6.248489216267261
            ],
            [
              107.15106105371076,
              -6.248541245553747
            ],
            [
              107.15111988685139,
              -6.248593790592395
            ],
            [
              107.15117825953865,
              -6.248646847381843
            ],
            [
              107.15123616732728,
              -6.248700411881769
            ],
            [
              107.15129360580737,
              -6.248754480013177
            ],
            [
              107.15135057060482,
              -6.24880904765872
            ],
            [
              107.1514070573815,
              -6.248864110663012
            ],
            [
              107.15146306183577,
              -6.248919664832945
            ],
            [
              107.15151857970268,
              -6.248975705938007
            ],
            [
              107.1515736067543,
              -6.2490322297106
            ],
            [
              107.15162813880012,
              -6.249089231846372
            ],
            [
              107.1516821716873,
              -6.24914670800454
            ],
            [
              107.15173570130099,
              -6.249204653808226
            ],
            [
              107.1517887235647,
              -6.249263064844785
            ],
            [
              107.15184123444054,
              -6.249321936666135
            ],
            [
              107.15189322992956,
              -6.249381264789119
            ],
            [
              107.15194470607207,
              -6.249441044695812
            ],
            [
              107.15199565894792,
              -6.2495012718339
            ],
            [
              107.15204608467681,
              -6.249561941616998
            ],
            [
              107.15209597941855,
              -6.249623049425018
            ],
            [
              107.1521453393734,
              -6.249684590604512
            ],
            [
              107.15219416078236,
              -6.249746560469032
            ],
            [
              107.15224243992742,
              -6.249808954299477
            ],
            [
              107.15229017313183,
              -6.2498717673444615
            ],
            [
              107.15233735676046,
              -6.24993499482068
            ],
            [
              107.15238398722,
              -6.249998631913255
            ],
            [
              107.15243006095928,
              -6.2500626737761245
            ],
            [
              107.1524755744695,
              -6.250127115532393
            ],
            [
              107.15252052428453,
              -6.250191952274721
            ],
            [
              107.15256490698113,
              -6.250257179065672
            ],
            [
              107.15260871917933,
              -6.250322790938124
            ],
            [
              107.15265195754249,
              -6.2503887828956115
            ],
            [
              107.15269461877774,
              -6.250455149912735
            ],
            [
              107.15273669963615,
              -6.250521886935528
            ],
            [
              107.15277819691293,
              -6.250588988881842
            ],
            [
              107.1528191074478,
              -6.250656450641741
            ],
            [
              107.1528594281251,
              -6.250724267077885
            ],
            [
              107.1528991558741,
              -6.250792433025922
            ],
            [
              107.15293828766926,
              -6.250860943294887
            ],
            [
              107.15297682053034,
              -6.250929792667588
            ],
            [
              107.15301475152279,
              -6.250998975901004
            ],
            [
              107.15305207775783,
              -6.251068487726695
            ],
            [
              107.15308879639278,
              -6.251138322851192
            ],
            [
              107.15312490463116,
              -6.251208475956408
            ],
            [
              107.15316039972303,
              -6.25127894170003
            ],
            [
              107.15319527896511,
              -6.251349714715945
            ],
            [
              107.15322953970104,
              -6.251420789614636
            ],
            [
              107.15326317932153,
              -6.251492160983592
            ],
            [
              107.15329619526457,
              -6.251563823387719
            ],
            [
              107.15332858501571,
              -6.251635771369768
            ],
            [
              107.15336034610812,
              -6.251707999450733
            ],
            [
              107.15339147612285,
              -6.2517805021302815
            ],
            [
              107.15342197268903,
              -6.251853273887164
            ],
            [
              107.15345183348401,
              -6.25192630917963
            ],
            [
              107.15348105623357,
              -6.251999602445875
            ],
            [
              107.15350963871202,
              -6.252073148104435
            ],
            [
              107.1535375787425,
              -6.25214694055462
            ],
            [
              107.15356487419703,
              -6.252220974176955
            ],
            [
              107.1535915229967,
              -6.2522952433335925
            ],
            [
              107.15361752311192,
              -6.252369742368745
            ],
            [
              107.15364287256236,
              -6.252444465609116
            ],
            [
              107.15366756941735,
              -6.252519407364334
            ],
            [
              107.1536916117959,
              -6.252594561927383
            ],
            [
              107.15371499786681,
              -6.252669923575044
            ],
            [
              107.15373772584891,
              -6.252745486568319
            ],
            [
              107.1537597940111,
              -6.2528212451528775
            ],
            [
              107.15378120067254,
              -6.252897193559493
            ],
            [
              107.15380194420278,
              -6.2529733260044775
            ],
            [
              107.15382202302186,
              -6.2530496366901325
            ],
            [
              107.1538414356004,
              -6.253126119805174
            ],
            [
              107.1538601804598,
              -6.25320276952519
            ],
            [
              107.1538782561723,
              -6.2532795800130785
            ],
            [
              107.1538956613611,
              -6.25335654541949
            ],
            [
              107.15391239470043,
              -6.25343365988328
            ],
            [
              107.15392845491567,
              -6.253510917531943
            ],
            [
              107.15394384078354,
              -6.253588312482072
            ],
            [
              107.15395855113205,
              -6.253665838839799
            ],
            [
              107.15397258484064,
              -6.25374349070125
            ],
            [
              107.15398594084031,
              -6.253821262152985
            ],
            [
              107.15399861811368,
              -6.25389914727246
            ],
            [
              107.15401061569499,
              -6.25397714012847
            ],
            [
              107.15402193267032,
              -6.2540552347816
            ],
            [
              107.15403256817751,
              -6.254133425284687
            ],
            [
              107.15404252140637,
              -6.254211705683261
            ],
            [
              107.15405179159856,
              -6.254290070016003
            ],
            [
              107.15406037804787,
              -6.254368512315204
            ],
            [
              107.15406828010009,
              -6.254447026607209
            ],
            [
              107.15407549715314,
              -6.254525606912881
            ],
            [
              107.15408202865714,
              -6.2546042472480545
            ],
            [
              107.15408787411434,
              -6.254682941623994
            ],
            [
              107.1540930330793,
              -6.254761684047833
            ],
            [
              107.15409750515884,
              -6.254840468523054
            ],
            [
              107.15410129001211,
              -6.254919289049931
            ],
            [
              107.15410438735051,
              -6.25499813962599
            ],
            [
              107.15410679693791,
              -6.255077014246469
            ],
            [
              107.15410851859048,
              -6.2551559069047675
            ],
            [
              107.1541095521768,
              -6.25523481159291
            ],
            [
              107.15410989761786,
              -6.255313722302005
            ]
          ]
        ]
      },
      "properties": {
        "center_lon": 107.1450733,
        "center_lat": -6.2553138,
        "radius_m": 1000,
        "distance_type": "straight_line",
        "center_status": "unverified_geocoded_station_reference",
        "boundary_vertices": 720,
        "boundary_approximation_max_radial_error_m": 0.009519279265512992,
        "note": "Pusat sementara dari data survei berlabel Stasiun Cikarang; bukan pintu stasiun tervalidasi."
      }
    }
  ]
}